[{"OBJECT_NAME":"HAWK-11B","OBJECT_ID":"2024-247C","EPOCH":"2026-03-09T10:44:06.809856","MEAN_MOTION":15.2884707,"ECCENTRICITY":0.00046902,"INCLINATION":45.0161,"RA_OF_ASC_NODE":115.761,"ARG_OF_PERICENTER":333.0326,"MEAN_ANOMALY":27.0314,"EPHEMERIS_TYPE":0,"CLASSIFICATION_TYPE":"U","NORAD_CAT_ID":62379,"ELEMENT_SET_NO":999,"REV_AT_EPOCH":6773,"BSTAR":0.00032841927,"MEAN_MOTION_DOT":9.093e-5,"MEAN_MOTION_DDOT":0},{"OBJECT_NAME":"FENGYUN 1C DEB","OBJECT_ID":"1999-025DCL","EPOCH":"2026-03-08T01:32:38.043744","MEAN_MOTION":14.80481308,"ECCENTRICITY":0.0218035,"INCLINATION":98.8149,"RA_OF_ASC_NODE":16.0796,"ARG_OF_PERICENTER":161.8742,"MEAN_ANOMALY":199.0399,"EPHEMERIS_TYPE":0,"CLASSIFICATION_TYPE":"U","NORAD_CAT_ID":33603,"ELEMENT_SET_NO":999,"REV_AT_EPOCH":119,"BSTAR":0.0001936534,"MEAN_MOTION_DOT":2.149e-5,"MEAN_MOTION_DDOT":0}]
